[{"OBJECT_NAME":"TEVEL2-1","OBJECT_ID":"2025-052H","EPOCH":"2026-03-09T15:32:51.927072","MEAN_MOTION":15.30341923,"ECCENTRICITY":0.0004767,"INCLINATION":97.3991,"RA_OF_ASC_NODE":324.7682,"ARG_OF_PERICENTER":104.8919,"MEAN_ANOMALY":255.2849,"EPHEMERIS_TYPE":0,"CLASSIFICATION_TYPE":"U","NORAD_CAT_ID":63217,"ELEMENT_SET_NO":999,"REV_AT_EPOCH":5485,"BSTAR":0.000706,"MEAN_MOTION_DOT":0.00020683,"MEAN_MOTION_DDOT":0},{"OBJECT_NAME":"STARLINK-36473","OBJECT_ID":"2026-002W","EPOCH":"2026-03-09T18:38:30.151968","MEAN_MOTION":15.27591602,"ECCENTRICITY":0.00016319,"INCLINATION":43.0009,"RA_OF_ASC_NODE":324.6501,"ARG_OF_PERICENTER":269.827,"MEAN_ANOMALY":90.2395,"EPHEMERIS_TYPE":0,"CLASSIFICATION_TYPE":"U","NORAD_CAT_ID":67325,"ELEMENT_SET_NO":999,"REV_AT_EPOCH":1125,"BSTAR":0.00097584716,"MEAN_MOTION_DOT":0.00026698,"MEAN_MOTION_DDOT":0}]
