TEVEL2-1                
1 63217U 25052H   26068.64782323  .00020683  00000+0  70600-3 0  9994
2 63217  97.3991 324.7682 0004767 104.8919 255.2849 15.30341923 54855
STARLINK-36473          
1 67325U 26002W   26068.77673787  .00026698  00000+0  97585-3 0  9994
2 67325  43.0009 324.6501 0001632 269.8270  90.2395 15.27591602 11253
